1 14795U 84012F   25118.76645763  .00010014  00000-0  74922-3 0  9995
2 14795  63.3010  40.8942 0770515 118.9436 249.1100 13.83738910297182